[Satellite]
VERSION=1.1
NAME=METOP-C
NICKNAME=METOP-C
TLE1=1 43689U 18087A   20157.75900751  .00000002  00000-0  20816-4 0  9996
TLE2=2 43689  98.6985 217.5226 0002668  45.6023 314.5372 14.21491236 81933
STATUS=0
